TRANSPORTER-12 OBJECT AZ
1 62656U 25009AZ  26068.71026235  .00016057  00000+0  54903-3 0  9991
2 62656  97.3981 151.9913 0000987  45.3581 314.7740 15.30349724 63792
STARLINK-35304          
1 66249U 25245R   26068.85412491  .00041908  00000+0  14181-2 0  9999
2 66249  53.1587 282.9916 0002231 154.6324 205.4787 15.30223002 21068
